#aV2007 10  9  0  0   .00000000      96 DD+AD WGS84 FIT  NGA
## 1448 172800.00000000   900.00000000 54382  .0000000000000
+   31     1  2  3  4  5  6  7  8  9 10 11 12 13 14 16 17 18
+         19 20 21 22 23 24 25 26 27 28 29 30 31 32  0  0  0
+          0  0  0  0  0  0  0  0  0  0  0  0  0  0  0  0  0
+          0  0  0  0  0  0  0  0  0  0  0  0  0  0  0  0  0
+          0  0  0  0  0  0  0  0  0  0  0  0  0  0  0  0  0
++         0  0  0  0  0  0  0  0  0  0  0  0  0  0  0  0  0
++         0  0  0  0  0  0  0  0  0  0  0  0  0  0  0  0  0
++         0  0  0  0  0  0  0  0  0  0  0  0  0  0  0  0  0
++         0  0  0  0  0  0  0  0  0  0  0  0  0  0  0  0  0
++         0  0  0  0  0  0  0  0  0  0  0  0  0  0  0  0  0
%c cc cc ccc ccc cccc cccc cccc cccc ccccc ccccc ccccc ccccc
%c cc cc ccc ccc cccc cccc cccc cccc ccccc ccccc ccccc ccccc
%f  0.0000000  0.000000000  0.00000000000  0.000000000000000
%f  0.0000000  0.000000000  0.00000000000  0.000000000000000
%i    0    0    0    0      0      0      0      0         0
%i    0    0    0    0      0      0      0      0         0
/*      NGA, ST. LOUIS,MO.                                  
/*   EPHEMERIS COMPUTED FROM  3 DAYS OF DATA                
/* CCCCCCCCCCCCCCCCCCCCCCCCCCCCCCCCCCCCCCCCCCCCCCCCCCCCCCCCC
/* CCCCCCCCCCCCCCCCCCCCCCCCCCCCCCCCCCCCCCCCCCCCCCCCCCCCCCCCC
*  2007 10  9 11 15   .00000000                                                 
P  1  -3456.354741 -14502.650972  22199.832099    158.158474                    
V  1  27578.692917   -418.697991   3982.643178       .026864                    
P  2  12370.336050  23349.876011   3818.747704    142.374046                    
V  2  -5321.996207  -2507.691696  30713.832978       .027492                    
P  3 -14157.293229 -12282.657129 -19169.374486    127.107773                    
V  3  23321.838248  -5331.166226 -13629.955430       .053708                    
P  4   2065.009666  22135.707033  14183.648362    -12.245789                    
V  4 -12253.364039 -13899.876376  23714.548229      -.034920                    
P  5  17291.225489  -6668.839631  18714.866222    455.532912                    
V  5  -7260.610147  23388.519130  14981.691304       .295510                    
P  6  24465.751419  -7576.981422  -6906.262648    238.742611                    
V  6   9336.883483   2565.125015  29450.291394      -.047260                    
P  7  23427.249115  -9112.766415  -8303.516630    -59.725047                    
V  7  11362.738659   1972.657239  28694.375140       .169795                    
P  8  -5421.707757  16832.079269 -19770.029291   -125.764130                    
V  8 -13786.734882 -20851.976646 -14498.310740      -.015552                    
P  9  19561.759675  11396.623548  13424.330232     91.283869                    
V  9   8789.705756  15836.536246 -24936.613221       .017418                    
P 10   5439.420105  17729.826958 -19006.090655   -101.186340                    
V 10 -12519.915367  20508.657101  15957.320931      -.146703                    
P 11 -21782.411986  -6891.940735  13668.886186     24.676389                    
V 11  -9638.249168 -15197.183563 -22502.512036       .004273                    
P 12  16198.240451    505.300808  21123.048290   -344.244557                    
V 12 -11223.325664  24148.136696   8128.450934      -.013151                    
P 13 -24289.648644   6237.559331  -8819.905161    212.530260                    
V 13 -11051.235481  -1334.694429  29867.751606       .028083                    
P 14   9522.423776 -13903.056001  20595.503550   -327.897248                    
V 14  25903.908995   -211.824792 -12269.510163       .023598                    
P 16  -1018.751275 -21415.368088 -15500.177832    180.199094                    
V 16  10953.167456 -16702.562688  22412.961741       .020987                    
P 17 -11031.765317  14239.073090  19490.458267     52.239999                    
V 17 -24792.750566    -28.898773 -14160.880491      -.011863                    
P 18  17338.626749 -17322.213178  -9611.577635   -232.176986                    
V 18  -3314.917353  12520.844992 -28415.164971       .019661                    
P 19 -22658.811885  -8081.912127 -11325.776774       .156991                    
V 19  14486.775453  -2322.842323 -26961.239054       .022806                    
P 20 -17280.138254   3294.324053  19788.217424    -30.868113                    
V 20   9858.191554 -23437.665988  12481.490838      -.006132                    
P 21  13519.695419  -7860.410895 -21321.247430     77.715524                    
V 21  14695.949633  23258.551476    153.319543      -.003194                    
P 22  10996.870684 -23992.704942   2918.581464    200.071851                    
V 22   4516.990084  -1510.853557 -31219.509031       .010676                    
P 23 -26569.723253    -82.037480   2423.639273    298.192356                    
V 23   3000.661309  -2460.908660  31640.910332       .036459                    
P 24  17834.992437   3705.232078 -19031.421170     36.908599                    
V 24  11173.225557  22085.389177  14905.874578       .029874                    
P 25 -16079.533633   2925.870907 -20543.483092    457.795420                    
V 25 -16187.523441 -21569.001943   9580.953870       .080408                    
P 26  20578.707930   9259.343114 -14897.480665     55.749223                    
V 26 -17825.914346   1223.654569 -24083.992842       .129206                    
P 27 -11552.725876   9255.679529 -21400.200786    140.152714                    
V 27 -17419.070966 -22852.723300   -668.353449       .023667                    
P 28 -12446.164723  23240.627491   -167.281177     -8.309562                    
V 28  -2434.015104  -2001.392119 -32013.417435      -.005445                    
P 29  17141.096824  10450.595153 -17397.004186      5.969217                    
V 29 -22168.745398   2287.960192 -19852.667662       .001247                    
P 30  17554.686279 -12727.450447  14940.178683     48.396870                    
V 30  -5800.916049  18922.677038  22545.793512       .012627                    
P 31  -5021.344130 -23004.275797  12414.234863      6.707951                    
V 31  10455.046518  11621.644697  26255.657328      -.013565                    
P 32   3253.805572 -23020.039877  13435.715752     93.059809                    
V 32   9893.752069 -12967.130556 -25377.099183       .153039                    
EOF
